KUIPER-00061            
1 64521U 25134X   25291.00002315  .00043663  00000+0  57673-2 0  9994
2 64521  51.8998 139.0507 0005770 157.9874 136.3781 14.79572008  4944
KUIPER-00062            
1 64522U 25134Y   25290.82005496  .00006684  00000+0  80858-3 0  9991
2 64522  51.8956 146.7636 0007744 180.1821 179.9142 14.84657274 18898
KUIPER-00063            
1 64523U 25134Z   25290.86002727  .00005223  00000+0  71570-3 0  9999
2 64523  51.9004 149.5951 0004323 116.5051 243.6355 14.79807595 18851
KUIPER-00064            
1 64524U 25134AA  25290.98218205  .00006816  00000+0  93366-3 0  9999
2 64524  51.9011 146.3075 0005424 234.6190 125.4266 14.79403700 18916
KUIPER-00065            
1 64525U 25134AB  25290.88853737  .00006579  00000+0  89068-3 0  9994
2 64525  51.9007 151.6678 0011292 168.2902 191.8325 14.79928489 18811
KUIPER-00066            
1 64526U 25134AC  25288.89191263  .00019995  00000+0  97599-3 0  9996
2 64526  51.8870 146.7686 0004596 172.2772 187.8278 15.18258467 18720
KUIPER-00069            
1 64816U 25151A   25291.00002315 -.00453885  00000+0 -23123-1 0  9995
2 64816  51.8800 196.3316 0008734 142.8603 291.3985 15.18392572  5537
KUIPER-00070            
1 64817U 25151B   25290.96270876  .00008518  00000+0  11431-2 0  9996
2 64817  51.8985 216.7034 0010066 135.7955 224.3813 14.79978215 15287
